GLOBALSTAR M035         
1 25851U 99037A   24245.52853411 -.00000012  00000+0  19377-2 0  9997
2 25851  51.9995 338.7017 0013478 232.3251 218.5838 11.04531970 64366
GLOBALSTAR M032         
1 25852U 99037B   24245.81649623  .00000027  00000+0  30054-2 0  9998
2 25852  51.9929 183.1487 0010756  39.7009 320.4576 11.19061686102568
GLOBALSTAR M051         
1 25853U 99037C   24245.61230099 -.00000056  00000+0  40412-3 0  9993
2 25853  51.9830  17.0391 0001954  74.5586 285.5440 11.42198923 99417
GLOBALSTAR M030         
1 25854U 99037D   24245.83622781 -.00000089  00000+0 -29987-3 0  9992
2 25854  51.9853 200.9405 0003504 253.0966 106.9466 11.55100384116828
GLOBALSTAR M048         
1 25872U 99041A   24245.60244177 -.00000032  00000+0  10242-2 0  9991
2 25872  51.9375 300.9452 0013242  46.0564 119.7535 11.33848682 92248
GLOBALSTAR M026         
1 25873U 99041B   24245.86356942 -.00000057  00000+0  27538-3 0  9998
2 25873  51.9993  98.9412 0001781  98.8474 272.8379 11.06834251116763
GLOBALSTAR M043         
1 25874U 99041C   24245.59179424 -.00000095  00000+0 -80620-3 0  9991
2 25874  51.9429  37.1055 0012953 175.4467 263.7827 11.25687288 90375
GLOBALSTAR M028         
1 25875U 99041D   24245.54496418 -.00000047  00000+0  34348-3 0  9994
2 25875  51.9647 333.7342 0063858 164.2699 196.0164 12.50562771154062
